{"fetched_at":"2026-07-10T07:58:55.298Z","source":"https://celestrak.org/NORAD/elements/gp.php?NAME=CENTAURI&FORMAT=JSON","constellation":"myriota","records":[{"OBJECT_NAME":"CENTAURI-1","OBJECT_ID":"2018-099BD","EPOCH":"2026-07-09T20:07:43.107168","CLASSIFICATION_TYPE":"U","MEAN_MOTION":15.16590604,"ECCENTRICITY":0.0012615,"INCLINATION":97.4212,"RA_OF_ASC_NODE":242.0731,"ARG_OF_PERICENTER":245.6318,"MEAN_ANOMALY":114.3598,"EPHEMERIS_TYPE":0,"NORAD_CAT_ID":43809,"ELEMENT_SET_NO":999,"REV_AT_EPOCH":41593,"BSTAR":0.00018864,"MEAN_MOTION_DOT":0.00003624,"MEAN_MOTION_DDOT":0},{"OBJECT_NAME":"CENTAURI-6","OBJECT_ID":"2024-066K","EPOCH":"2026-07-09T05:23:21.783552","CLASSIFICATION_TYPE":"U","MEAN_MOTION":15.06000202,"ECCENTRICITY":0.00014148,"INCLINATION":45.6048,"RA_OF_ASC_NODE":139.3914,"ARG_OF_PERICENTER":240.5607,"MEAN_ANOMALY":119.5136,"EPHEMERIS_TYPE":0,"NORAD_CAT_ID":59451,"ELEMENT_SET_NO":999,"REV_AT_EPOCH":12344,"BSTAR":0.00019875965,"MEAN_MOTION_DOT":0.00002697,"MEAN_MOTION_DDOT":0},{"OBJECT_NAME":"CENTAURI-7","OBJECT_ID":"2025-009DD","EPOCH":"2026-07-09T04:09:07.625952","CLASSIFICATION_TYPE":"U","MEAN_MOTION":14.97946484,"ECCENTRICITY":0.000281,"INCLINATION":97.709,"RA_OF_ASC_NODE":270.1687,"ARG_OF_PERICENTER":113.2452,"MEAN_ANOMALY":246.9066,"EPHEMERIS_TYPE":0,"NORAD_CAT_ID":62708,"ELEMENT_SET_NO":999,"REV_AT_EPOCH":8075,"BSTAR":0.0002583799,"MEAN_MOTION_DOT":0.00002988,"MEAN_MOTION_DDOT":0},{"OBJECT_NAME":"CENTAURI-8","OBJECT_ID":"2025-009DK","EPOCH":"2026-07-09T04:50:09.586176","CLASSIFICATION_TYPE":"U","MEAN_MOTION":14.97908723,"ECCENTRICITY":0.00028153,"INCLINATION":97.7044,"RA_OF_ASC_NODE":270.0223,"ARG_OF_PERICENTER":82.9967,"MEAN_ANOMALY":277.1575,"EPHEMERIS_TYPE":0,"NORAD_CAT_ID":62714,"ELEMENT_SET_NO":999,"REV_AT_EPOCH":8077,"BSTAR":0.00013623033,"MEAN_MOTION_DOT":0.00001546,"MEAN_MOTION_DDOT":0}]}
