CENTAURI-1              
1 43809U 18099BD  26190.83869337  .00003624  00000+0  18864-3 0  9990
2 43809  97.4212 242.0731 0012615 245.6318 114.3598 15.16590604415934
CENTAURI-6              
1 59451U 24066K   26190.22455768  .00002697  00000+0  19876-3 0  9996
2 59451  45.6048 139.3914 0001414 240.5607 119.5136 15.06000202123443
CENTAURI-7              
1 62708U 25009DD  26190.17300493  .00002988  00000+0  25838-3 0  9999
2 62708  97.7090 270.1687 0002810 113.2452 246.9066 14.97946484 80756
CENTAURI-8              
1 62714U 25009DK  26190.20149984  .00001546  00000+0  13623-3 0  9994
2 62714  97.7044 270.0223 0002815  82.9967 277.1575 14.97908723 80772
